NORAD_CAT_ID,OBJECT_NAME,OBJECT_TYPE,EPOCH,MEAN_MOTION,ECCENTRICITY,INCLINATION,RA_OF_ASC_NODE,ARG_OF_PERICENTER,MEAN_ANOMALY,BSTAR,MEAN_MOTION_DOT,MEAN_MOTION_DDOT,TLE_LINE0,TLE_LINE1,TLE_LINE2,SEMIMAJOR_AXIS,PERIOD,APOGEE,PERIGEE,DECAYED
53555.0,STARLINK-4504,PAYLOAD,2023-10-02 19:04:08,15.08846336,0.0001367,53.2162,94.527,84.4766,275.6382,0.00016472,2.335e-05,0.0,0 STARLINK-4504,1 53555U 22101AE  23275.79454038  .00002335  00000-0  16472-3 0  9994,2 53555  53.2162  94.5270 0001367  84.4766 275.6382 15.08846336 62772,6917.861,95.437,540.672,538.78,0.0
53555.0,STARLINK-4504,PAYLOAD,2023-10-03 10:57:59,15.08841217,0.0001445,53.2169,91.5546,89.2863,270.8295,6.0598e-05,6.77e-06,0.0,0 STARLINK-4504,1 53555U 22101AE  23276.45694196  .00000677  00000-0  60598-4 0  9995,2 53555  53.2169  91.5546 0001445  89.2863 270.8295 15.08841217 62874,6917.877,95.437,540.741,538.742,0.0
53555.0,STARLINK-4504,PAYLOAD,2023-10-03 17:19:32,15.08836917,0.000144,53.2172,90.3648,89.1691,270.9466,-5.6291e-05,-1.184e-05,0.0,0 STARLINK-4504,1 53555U 22101AE  23276.72190388 -.00001184  00000-0 -56291-4 0  9990,2 53555  53.2172  90.3648 0001440  89.1691 270.9466 15.08836917 62255,6917.89,95.438,540.751,538.759,0.0
53555.0,STARLINK-4504,PAYLOAD,2023-10-04 12:24:10,15.08842817,0.0001459,53.2182,86.7967,90.4704,269.6455,0.00014971,2.096e-05,0.0,0 STARLINK-4504,1 53555U 22101AE  23277.51678347  .00002096  00000-0  14971-3 0  9993,2 53555  53.2182  86.7967 0001459  90.4704 269.6455 15.08842817 63035,6917.872,95.437,540.746,538.727,0.0
53555.0,STARLINK-4504,PAYLOAD,2023-10-04 18:45:42,15.08848241,0.0001412,53.2178,85.6071,90.3405,269.7749,0.00024232,3.572e-05,0.0,0 STARLINK-4504,1 53555U 22101AE  23277.78174083  .00003572  00000-0  24232-3 0  9991,2 53555  53.2178  85.6071 0001412  90.3405 269.7749 15.08848241 62415,6917.855,95.437,540.697,538.743,0.0
53555.0,STARLINK-4504,PAYLOAD,2023-10-05 10:39:34,15.08834402,0.0001644,53.2171,82.6328,86.2796,273.8384,6.2412e-05,7.05e-06,0.0,0 STARLINK-4504,1 53555U 22101AE  23278.44414925  .00000705  00000-0  62412-4 0  9995,2 53555  53.2171  82.6328 0001644  86.2796 273.8384 15.08834402 62510,6917.897,95.438,540.9,538.625,0.0
53555.0,STARLINK-4504,PAYLOAD,2023-10-05 12:14:57,15.08833694,0.0001624,53.2171,82.3355,86.6771,273.4407,1.1043e-05,-1.12e-06,0.0,0 STARLINK-4504,1 53555U 22101AE  23278.51038892 -.00000112  00000-0  11043-4 0  9995,2 53555  53.2171  82.3355 0001624  86.6771 273.4407 15.08833694 63180,6917.9,95.438,540.888,538.641,0.0
53555.0,STARLINK-4504,PAYLOAD,2023-10-05 18:36:30,15.08838921,0.0001624,53.2175,81.1465,85.1954,274.9223,0.00020205,2.929e-05,0.0,0 STARLINK-4504,1 53555U 22101AE  23278.77534843  .00002929  00000-0  20205-3 0  9996,2 53555  53.2175  81.1465 0001624  85.1954 274.9223 15.08838921 63225,6917.884,95.438,540.872,538.625,0.0
53555.0,STARLINK-4504,PAYLOAD,2023-10-06 10:30:21,15.08839609,0.0001673,53.2177,78.1731,84.6581,275.4602,0.00036831,5.578e-05,0.0,0 STARLINK-4504,1 53555U 22101AE  23279.43775208  .00005578  00000-0  36831-3 0  9997,2 53555  53.2177  78.1731 0001673  84.6581 275.4602 15.08839609 63325,6917.882,95.438,540.904,538.589,0.0
53555.0,STARLINK-4504,PAYLOAD,2023-10-06 16:51:54,15.08843024,0.0001519,53.2168,76.9828,94.7981,265.3184,0.00051192,7.869e-05,0.0,0 STARLINK-4504,1 53555U 22101AE  23279.70271112  .00007869  00000-0  51192-3 0  9994,2 53555  53.2168  76.9828 0001519  94.7981 265.3184 15.08843024 62703,6917.871,95.437,540.787,538.685,0.0
53555.0,STARLINK-4504,PAYLOAD,2023-10-07 10:21:08,15.08845101,0.000159,53.2168,73.7122,93.2084,266.909,0.0003228,4.854e-05,0.0,0 STARLINK-4504,1 53555U 22101AE  23280.43135092  .00004854  00000-0  32280-3 0  9990,2 53555  53.2168  73.7122 0001590  93.2084 266.9090 15.08845101 62815,6917.865,95.437,540.83,538.63,0.0
53555.0,STARLINK-4504,PAYLOAD,2023-10-07 16:42:41,15.08850314,0.0001535,53.2168,72.5231,93.279,266.8378,0.0002971,4.445e-05,0.0,0 STARLINK-4504,1 53555U 22101AE  23280.69630824  .00004445  00000-0  29710-3 0  9991,2 53555  53.2168  72.5231 0001535  93.2790 266.8378 15.08850314 63514,6917.849,95.437,540.776,538.652,0.0
53555.0,STARLINK-4504,PAYLOAD,2023-10-08 10:11:55,15.08844159,0.0001507,53.2152,69.25,96.2648,263.8516,0.00014575,2.033e-05,0.0,0 STARLINK-4504,1 53555U 22101AE  23281.42494983  .00002033  00000-0  14575-3 0  9991,2 53555  53.2152  69.2500 0001507  96.2648 263.8516 15.08844159 62962,6917.868,95.437,540.775,538.69,0.0
53555.0,STARLINK-4504,PAYLOAD,2023-10-08 13:22:41,15.08842428,0.0001422,53.2156,68.6557,93.0203,267.0952,8.0127e-05,9.88e-06,0.0,0 STARLINK-4504,1 53555U 22101AE  23281.55743010  .00000988  00000-0  80127-4 0  9997,2 53555  53.2156  68.6557 0001422  93.0203 267.0952 15.08842428 63642,6917.873,95.437,540.722,538.754,0.0
53555.0,STARLINK-4504,PAYLOAD,2023-10-08 19:44:14,15.08851207,0.0001491,53.2179,67.4671,89.2546,270.8617,0.00019618,2.837e-05,0.0,0 STARLINK-4504,1 53555U 22101AE  23281.82238648  .00002837  00000-0  19618-3 0  9994,2 53555  53.2179  67.4671 0001491  89.2546 270.8617 15.08851207 63683,6917.846,95.437,540.743,538.68,0.0
53555.0,STARLINK-4504,PAYLOAD,2023-10-09 13:13:29,15.08839375,0.000147,53.2161,64.1951,99.4609,260.6549,4.2103e-05,3.82e-06,0.0,0 STARLINK-4504,1 53555U 22101AE  23282.55103098  .00000382  00000-0  42103-4 0  9994,2 53555  53.2161  64.1951 0001470  99.4609 260.6549 15.08839375 63794,6917.882,95.438,540.764,538.73,0.0
53555.0,STARLINK-4504,PAYLOAD,2023-10-09 16:24:15,15.08844275,0.0001338,53.2174,63.6022,90.1266,269.988,0.00010067,1.315e-05,0.0,0 STARLINK-4504,1 53555U 22101AE  23282.68350950  .00001315  00000-0  10067-3 0  9999,2 53555  53.2174  63.6022 0001338  90.1266 269.9880 15.08844275 63156,6917.867,95.437,540.658,538.807,0.0
53555.0,STARLINK-4504,PAYLOAD,2023-10-09 19:35:01,15.08848372,0.0001346,53.2166,63.0066,90.9333,269.1814,0.00018113,2.597e-05,0.0,0 STARLINK-4504,1 53555U 22101AE  23282.81598773  .00002597  00000-0  18113-3 0  9994,2 53555  53.2166  63.0066 0001346  90.9333 269.1814 15.08848372 63837,6917.855,95.437,540.651,538.789,0.0
53555.0,STARLINK-4504,PAYLOAD,2023-10-10 09:53:29,15.08839661,0.0001246,53.2166,60.3295,83.2,276.9134,0.00011147,1.487e-05,0.0,0 STARLINK-4504,1 53555U 22101AE  23283.41215152  .00001487  00000-0  11147-3 0  9995,2 53555  53.2166  60.3295 0001246  83.2000 276.9134 15.08839661 63265,6917.881,95.438,540.608,538.884,0.0
53555.0,STARLINK-4504,PAYLOAD,2023-10-10 13:04:15,15.08843768,0.0001302,53.2178,59.7331,77.2911,282.8227,0.0002139,3.118e-05,0.0,0 STARLINK-4504,1 53555U 22101AE  23283.54462886  .00003118  00000-0  21390-3 0  9991,2 53555  53.2178  59.7331 0001302  77.2911 282.8227 15.08843768 63945,6917.869,95.437,540.635,538.833,0.0
53555.0,STARLINK-4504,PAYLOAD,2023-10-10 16:15:01,15.08853755,0.0001419,53.218,59.1408,94.3737,265.7417,0.00021011,3.059e-05,0.0,0 STARLINK-4504,1 53555U 22101AE  23283.67710337  .00003059  00000-0  21011-3 0  9996,2 53555  53.2180  59.1408 0001419  94.3737 265.7417 15.08853755 63300,6917.838,95.437,540.685,538.722,0.0
53555.0,STARLINK-4504,PAYLOAD,2023-10-11 09:44:16,15.08838464,0.0001344,53.2181,55.8691,81.6791,278.4353,-4.5176e-05,-1.007e-05,0.0,0 STARLINK-4504,1 53555U 22101AE  23284.40575026 -.00001007  00000-0 -45176-4 0  9994,2 53555  53.2181  55.8691 0001344  81.6791 278.4353 15.08838464 63416,6917.885,95.438,540.68,538.82,0.0
53555.0,STARLINK-4504,PAYLOAD,2023-10-11 12:55:03,15.0883574,0.000157,53.2182,55.2744,93.6321,266.4851,-5.495e-05,-1.162e-05,0.0,0 STARLINK-4504,1 53555U 22101AE  23284.53823178 -.00001162  00000-0 -54950-4 0  9994,2 53555  53.2182  55.2744 0001570  93.6321 266.4851 15.08835740 64092,6917.893,95.438,540.845,538.672,0.0
53555.0,STARLINK-4504,PAYLOAD,2023-10-12 12:45:50,15.08844064,0.0001534,53.219,50.8162,90.8159,269.3009,4.4499e-05,4.2e-06,0.0,0 STARLINK-4504,1 53555U 22101AE  23285.53183200  .00000420  00000-0  44499-4 0  9991,2 53555  53.2190  50.8162 0001534  90.8159 269.3009 15.08844064 64247,6917.868,95.437,540.794,538.672,0.0
53555.0,STARLINK-4504,PAYLOAD,2023-10-12 15:56:36,15.08850513,0.0001617,53.219,50.222,91.5223,268.5955,0.00016492,2.338e-05,0.0,0 STARLINK-4504,1 53555U 22101AE  23285.66430888  .00002338  00000-0  16492-3 0  9993,2 53555  53.2190  50.2220 0001617  91.5223 268.5955 15.08850513 63604,6917.848,95.437,540.832,538.595,0.0
53555.0,STARLINK-4504,PAYLOAD,2023-10-13 01:28:55,15.08840502,0.0001555,53.2185,48.4369,90.7441,269.373,0.00012919,1.769e-05,0.0,0 STARLINK-4504,1 53555U 22101AE  23286.06175276  .00001769  00000-0  12919-3 0  9992,2 53555  53.2185  48.4369 0001555  90.7441 269.3730 15.08840502 63668,6917.879,95.438,540.82,538.668,0.0
53555.0,STARLINK-4504,PAYLOAD,2023-10-13 12:36:37,15.08835229,0.0001722,53.2187,46.3559,89.4667,270.6522,0.00012773,1.745e-05,0.0,0 STARLINK-4504,1 53555U 22101AE  23286.52543960  .00001745  00000-0  12773-3 0  9994,2 53555  53.2187  46.3559 0001722  89.4667 270.6522 15.08835229 63731,6917.895,95.438,540.951,538.569,0.0
53555.0,STARLINK-4504,PAYLOAD,2023-10-13 14:12:00,15.08837289,0.0001655,53.2187,46.0572,92.5864,267.5317,0.00015734,2.217e-05,0.0,0 STARLINK-4504,1 53555U 22101AE  23286.59167782  .00002217  00000-0  15734-3 0  9990,2 53555  53.2187  46.0572 0001655  92.5864 267.5317 15.08837289 64402,6917.889,95.438,540.899,538.609,0.0
53555.0,STARLINK-4504,PAYLOAD,2023-10-13 15:47:23,15.08850114,0.0001685,53.219,45.7617,90.8032,269.3154,0.00036192,5.478e-05,0.0,0 STARLINK-4504,1 53555U 22101AE  23286.65791407  .00005478  00000-0  36192-3 0  9997,2 53555  53.2190  45.7617 0001685  90.8032 269.3154 15.08850114 63751,6917.849,95.437,540.88,538.549,0.0
53555.0,STARLINK-4504,PAYLOAD,2023-10-14 07:41:15,15.08844892,0.0001693,53.2182,42.7877,94.0964,266.0221,0.00018162,2.604e-05,0.0,0 STARLINK-4504,1 53555U 22101AE  23287.32031459  .00002604  00000-0  18162-3 0  9991,2 53555  53.2182  42.7877 0001693  94.0964 266.0221 15.08844892 63852,6917.865,95.437,540.902,538.559,0.0
